ONEWEB-0667             
1 55827U 23029AH  26068.63441497 -.00000057  00000+0 -17237-3 0  9999
2 55827  87.9173 294.3021 0001542  93.4734 266.6576 13.20771159148004
HULIANWANG DIGUI-106    
1 66916U 25285B   26068.70521748 -.00649318  00000+0 -14618+1 0  9998
2 66916  50.0040 142.9495 0006551  39.3211 320.8136 13.29350457 12824
