[{"OBJECT_NAME":"ONEWEB-0667","OBJECT_ID":"2023-029AH","EPOCH":"2026-03-09T15:13:33.453408","MEAN_MOTION":13.20771159,"ECCENTRICITY":0.0001542,"INCLINATION":87.9173,"RA_OF_ASC_NODE":294.3021,"ARG_OF_PERICENTER":93.4734,"MEAN_ANOMALY":266.6576,"EPHEMERIS_TYPE":0,"CLASSIFICATION_TYPE":"U","NORAD_CAT_ID":55827,"ELEMENT_SET_NO":999,"REV_AT_EPOCH":14800,"BSTAR":-0.00017237,"MEAN_MOTION_DOT":-5.7e-7,"MEAN_MOTION_DDOT":0},{"OBJECT_NAME":"HULIANWANG DIGUI-106","OBJECT_ID":"2025-285B","EPOCH":"2026-03-09T16:55:30.790272","MEAN_MOTION":13.29350457,"ECCENTRICITY":0.00065507,"INCLINATION":50.004,"RA_OF_ASC_NODE":142.9495,"ARG_OF_PERICENTER":39.3211,"MEAN_ANOMALY":320.8136,"EPHEMERIS_TYPE":0,"CLASSIFICATION_TYPE":"U","NORAD_CAT_ID":66916,"ELEMENT_SET_NO":999,"REV_AT_EPOCH":1282,"BSTAR":-1.4618149,"MEAN_MOTION_DOT":-0.00649318,"MEAN_MOTION_DDOT":0}]
